[{"OBJECT_NAME":"GLOBALSTAR M001","OBJECT_ID":"1998-008A","EPOCH":"2026-04-04T14:13:45.569856","MEAN_MOTION":12.38230677,"ECCENTRICITY":0.0002075,"INCLINATION":52.0025,"RA_OF_ASC_NODE":205.0478,"ARG_OF_PERICENTER":144.898,"MEAN_ANOMALY":227.8436,"EPHEMERIS_TYPE":0,"CLASSIFICATION_TYPE":"U","NORAD_CAT_ID":25162,"ELEMENT_SET_NO":999,"REV_AT_EPOCH":27981,"BSTAR":0.00040183,"MEAN_MOTION_DOT":-4.4e-7,"MEAN_MOTION_DDOT":0},{"OBJECT_NAME":"GLOBALSTAR M004","OBJECT_ID":"1998-008B","EPOCH":"2026-04-04T20:44:05.731008","MEAN_MOTION":12.63417983,"ECCENTRICITY":0.00030951,"INCLINATION":51.9995,"RA_OF_ASC_NODE":244.3002,"ARG_OF_PERICENTER":203.3494,"MEAN_ANOMALY":321.6045,"EPHEMERIS_TYPE":0,"CLASSIFICATION_TYPE":"U","NORAD_CAT_ID":25163,"ELEMENT_SET_NO":999,"REV_AT_EPOCH":29855,"BSTAR":0.00010658581,"MEAN_MOTION_DOT":-8.5e-7,"MEAN_MOTION_DDOT":0},{"OBJECT_NAME":"GLOBALSTAR M002","OBJECT_ID":"1998-008C","EPOCH":"2026-04-04T19:30:37.330848","MEAN_MOTION":11.61515696,"ECCENTRICITY":6.175e-5,"INCLINATION":52.0004,"RA_OF_ASC_NODE":228.9957,"ARG_OF_PERICENTER":332.684,"MEAN_ANOMALY":27.3947,"EPHEMERIS_TYPE":0,"CLASSIFICATION_TYPE":"U","NORAD_CAT_ID":25164,"ELEMENT_SET_NO":999,"REV_AT_EPOCH":21795,"BSTAR":0.00032517052,"MEAN_MOTION_DOT":-6.0e-7,"MEAN_MOTION_DDOT":0},{"OBJECT_NAME":"GLOBALSTAR M003","OBJECT_ID":"1998-008D","EPOCH":"2026-04-04T15:58:06.348000","MEAN_MOTION":12.12019151,"ECCENTRICITY":0.0008066,"INCLINATION":51.9839,"RA_OF_ASC_NODE":81.1749,"ARG_OF_PERICENTER":155.9654,"MEAN_ANOMALY":15.615,"EPHEMERIS_TYPE":0,"CLASSIFICATION_TYPE":"U","NORAD_CAT_ID":25165,"ELEMENT_SET_NO":999,"REV_AT_EPOCH":26856,"BSTAR":-0.0011819,"MEAN_MOTION_DOT":-2.0e-6,"MEAN_MOTION_DDOT":0},{"OBJECT_NAME":"GLOBALSTAR M014","OBJECT_ID":"1998-023A","EPOCH":"2026-04-04T22:02:30.864192","MEAN_MOTION":11.65485892,"ECCENTRICITY":0.00012729,"INCLINATION":51.9818,"RA_OF_ASC_NODE":145.8206,"ARG_OF_PERICENTER":172.9431,"MEAN_ANOMALY":358.9506,"EPHEMERIS_TYPE":0,"CLASSIFICATION_TYPE":"U","NORAD_CAT_ID":25306,"ELEMENT_SET_NO":999,"REV_AT_EPOCH":22518,"BSTAR":0.00070895499,"MEAN_MOTION_DOT":-4.0e-7,"MEAN_MOTION_DDOT":0},{"OBJECT_NAME":"GLOBALSTAR M006","OBJECT_ID":"1998-023B","EPOCH":"2026-04-04T13:40:32.129184","MEAN_MOTION":11.58178913,"ECCENTRICITY":0.0002727,"INCLINATION":51.9932,"RA_OF_ASC_NODE":210.0668,"ARG_OF_PERICENTER":268.5799,"MEAN_ANOMALY":103.8361,"EPHEMERIS_TYPE":0,"CLASSIFICATION_TYPE":"U","NORAD_CAT_ID":25307,"ELEMENT_SET_NO":999,"REV_AT_EPOCH":25059,"BSTAR":0.00022107,"MEAN_MOTION_DOT":-6.5e-7,"MEAN_MOTION_DDOT":0},{"OBJECT_NAME":"GLOBALSTAR M015","OBJECT_ID":"1998-023C","EPOCH":"2026-04-04T22:35:07.010304","MEAN_MOTION":11.48860815,"ECCENTRICITY":0.00121099,"INCLINATION":51.9848,"RA_OF_ASC_NODE":320.9902,"ARG_OF_PERICENTER":234.129,"MEAN_ANOMALY":138.9236,"EPHEMERIS_TYPE":0,"CLASSIFICATION_TYPE":"U","NORAD_CAT_ID":25308,"ELEMENT_SET_NO":999,"REV_AT_EPOCH":22761,"BSTAR":5.2794564e-5,"MEAN_MOTION_DOT":-7.1e-7,"MEAN_MOTION_DDOT":0},{"OBJECT_NAME":"GLOBALSTAR M008","OBJECT_ID":"1998-023D","EPOCH":"2026-04-04T08:38:19.007808","MEAN_MOTION":12.36082353,"ECCENTRICITY":0.00029367,"INCLINATION":51.9966,"RA_OF_ASC_NODE":73.8554,"ARG_OF_PERICENTER":67.8829,"MEAN_ANOMALY":79.7738,"EPHEMERIS_TYPE":0,"CLASSIFICATION_TYPE":"U","NORAD_CAT_ID":25309,"ELEMENT_SET_NO":999,"REV_AT_EPOCH":27385,"BSTAR":0.00014170187,"MEAN_MOTION_DOT":-7.8e-7,"MEAN_MOTION_DDOT":0},{"OBJECT_NAME":"GLOBALSTAR M023","OBJECT_ID":"1999-004A","EPOCH":"2026-04-04T14:57:03.255840","MEAN_MOTION":12.62521681,"ECCENTRICITY":0.0010281,"INCLINATION":52.0096,"RA_OF_ASC_NODE":245.9991,"ARG_OF_PERICENTER":54.227,"MEAN_ANOMALY":26.7434,"EPHEMERIS_TYPE":0,"CLASSIFICATION_TYPE":"U","NORAD_CAT_ID":25621,"ELEMENT_SET_NO":999,"REV_AT_EPOCH":25254,"BSTAR":0.00044331,"MEAN_MOTION_DOT":-2.4e-7,"MEAN_MOTION_DDOT":0},{"OBJECT_NAME":"GLOBALSTAR M040","OBJECT_ID":"1999-004B","EPOCH":"2026-04-04T21:18:33.900768","MEAN_MOTION":12.62032318,"ECCENTRICITY":3.003e-5,"INCLINATION":51.9911,"RA_OF_ASC_NODE":249.776,"ARG_OF_PERICENTER":19.4305,"MEAN_ANOMALY":145.808,"EPHEMERIS_TYPE":0,"CLASSIFICATION_TYPE":"U","NORAD_CAT_ID":25622,"ELEMENT_SET_NO":999,"REV_AT_EPOCH":25208,"BSTAR":0.00033049407,"MEAN_MOTION_DOT":-4.5e-7,"MEAN_MOTION_DDOT":0},{"OBJECT_NAME":"GLOBALSTAR M036","OBJECT_ID":"1999-004C","EPOCH":"2026-04-04T13:41:11.148288","MEAN_MOTION":11.86623789,"ECCENTRICITY":0.0010198,"INCLINATION":51.996,"RA_OF_ASC_NODE":192.2788,"ARG_OF_PERICENTER":247.8053,"MEAN_ANOMALY":124.7761,"EPHEMERIS_TYPE":0,"CLASSIFICATION_TYPE":"U","NORAD_CAT_ID":25623,"ELEMENT_SET_NO":999,"REV_AT_EPOCH":21357,"BSTAR":0.0019622,"MEAN_MOTION_DOT":5.2e-7,"MEAN_MOTION_DDOT":0},{"OBJECT_NAME":"GLOBALSTAR M038","OBJECT_ID":"1999-004D","EPOCH":"2026-04-04T19:12:26.724384","MEAN_MOTION":12.32543173,"ECCENTRICITY":0.0001135,"INCLINATION":51.9988,"RA_OF_ASC_NODE":311.7483,"ARG_OF_PERICENTER":326.4642,"MEAN_ANOMALY":114.7688,"EPHEMERIS_TYPE":0,"CLASSIFICATION_TYPE":"U","NORAD_CAT_ID":25624,"ELEMENT_SET_NO":999,"REV_AT_EPOCH":23833,"BSTAR":0.0002879,"MEAN_MOTION_DOT":-6.0e-7,"MEAN_MOTION_DDOT":0},{"OBJECT_NAME":"GLOBALSTAR M022","OBJECT_ID":"1999-012A","EPOCH":"2026-04-04T18:27:48.480768","MEAN_MOTION":12.02511846,"ECCENTRICITY":0.00025922,"INCLINATION":52.0033,"RA_OF_ASC_NODE":218.238,"ARG_OF_PERICENTER":41.9094,"MEAN_ANOMALY":109.1452,"EPHEMERIS_TYPE":0,"CLASSIFICATION_TYPE":"U","NORAD_CAT_ID":25649,"ELEMENT_SET_NO":999,"REV_AT_EPOCH":21145,"BSTAR":0.00053075241,"MEAN_MOTION_DOT":-4.3e-7,"MEAN_MOTION_DDOT":0},{"OBJECT_NAME":"GLOBALSTAR M041","OBJECT_ID":"1999-012B","EPOCH":"2026-04-04T11:24:24.678432","MEAN_MOTION":11.96682652,"ECCENTRICITY":0.00013131,"INCLINATION":52.0001,"RA_OF_ASC_NODE":109.3689,"ARG_OF_PERICENTER":176.2532,"MEAN_ANOMALY":183.8315,"EPHEMERIS_TYPE":0,"CLASSIFICATION_TYPE":"U","NORAD_CAT_ID":25650,"ELEMENT_SET_NO":999,"REV_AT_EPOCH":21315,"BSTAR":0.00014960654,"MEAN_MOTION_DOT":-7.4e-7,"MEAN_MOTION_DDOT":0},{"OBJECT_NAME":"GLOBALSTAR M046","OBJECT_ID":"1999-012C","EPOCH":"2026-04-04T22:43:40.106208","MEAN_MOTION":12.09422575,"ECCENTRICITY":0.0002225,"INCLINATION":52.004,"RA_OF_ASC_NODE":157.2408,"ARG_OF_PERICENTER":118.3997,"MEAN_ANOMALY":52.9313,"EPHEMERIS_TYPE":0,"CLASSIFICATION_TYPE":"U","NORAD_CAT_ID":25651,"ELEMENT_SET_NO":999,"REV_AT_EPOCH":21896,"BSTAR":0.00045265327,"MEAN_MOTION_DOT":-4.8e-7,"MEAN_MOTION_DDOT":0},{"OBJECT_NAME":"GLOBALSTAR M037","OBJECT_ID":"1999-012D","EPOCH":"2026-04-04T22:19:09.242112","MEAN_MOTION":12.62463911,"ECCENTRICITY":0.00024521,"INCLINATION":52.0033,"RA_OF_ASC_NODE":15.5719,"ARG_OF_PERICENTER":102.1188,"MEAN_ANOMALY":334.1522,"EPHEMERIS_TYPE":0,"CLASSIFICATION_TYPE":"U","NORAD_CAT_ID":25652,"ELEMENT_SET_NO":999,"REV_AT_EPOCH":24812,"BSTAR":0.00020956833,"MEAN_MOTION_DOT":-6.6e-7,"MEAN_MOTION_DDOT":0}]
