GLOBALSTAR M001         
1 25162U 98008A   26094.59288854 -.00000044  00000+0  40183-3 0  9998
2 25162  52.0025 205.0478 0002075 144.8980 227.8436 12.38230677279814
GLOBALSTAR M004         
1 25163U 98008B   26094.86395522 -.00000085  00000+0  10659-3 0  9990
2 25163  51.9995 244.3002 0003095 203.3494 321.6045 12.63417983298558
GLOBALSTAR M002         
1 25164U 98008C   26094.81293207 -.00000060  00000+0  32517-3 0  9993
2 25164  52.0004 228.9957 0000617 332.6840  27.3947 11.61515696217950
GLOBALSTAR M003         
1 25165U 98008D   26094.66535125 -.00000200  00000+0 -11819-2 0  9993
2 25165  51.9839  81.1749 0008066 155.9654  15.6150 12.12019151268569
GLOBALSTAR M014         
1 25306U 98023A   26094.91841278 -.00000040  00000+0  70895-3 0  9995
2 25306  51.9818 145.8206 0001272 172.9431 358.9506 11.65485892225188
GLOBALSTAR M006         
1 25307U 98023B   26094.56981631 -.00000065  00000+0  22107-3 0  9995
2 25307  51.9932 210.0668 0002727 268.5799 103.8361 11.58178913250592
GLOBALSTAR M015         
1 25308U 98023C   26094.94105336 -.00000071  00000+0  52795-4 0  9992
2 25308  51.9848 320.9902 0012109 234.1290 138.9236 11.48860815227616
GLOBALSTAR M008         
1 25309U 98023D   26094.35994222 -.00000078  00000+0  14170-3 0  9999
2 25309  51.9966  73.8554 0002936  67.8829  79.7738 12.36082353273858
GLOBALSTAR M023         
1 25621U 99004A   26094.62295435 -.00000024  00000+0  44331-3 0  9999
2 25621  52.0096 245.9991 0010281  54.2270  26.7434 12.62521681252549
GLOBALSTAR M040         
1 25622U 99004B   26094.88789237 -.00000045  00000+0  33049-3 0  9993
2 25622  51.9911 249.7760 0000300  19.4305 145.8080 12.62032318252086
GLOBALSTAR M036         
1 25623U 99004C   26094.57026792  .00000052  00000+0  19622-2 0  9997
2 25623  51.9960 192.2788 0010198 247.8053 124.7761 11.86623789213572
GLOBALSTAR M038         
1 25624U 99004D   26094.80030931 -.00000060  00000+0  28790-3 0  9991
2 25624  51.9988 311.7483 0001135 326.4642 114.7688 12.32543173238330
GLOBALSTAR M022         
1 25649U 99012A   26094.76931112 -.00000043  00000+0  53075-3 0  9998
2 25649  52.0033 218.2380 0002592  41.9094 109.1452 12.02511846211455
GLOBALSTAR M041         
1 25650U 99012B   26094.47528563 -.00000074  00000+0  14961-3 0  9995
2 25650  52.0001 109.3689 0001313 176.2532 183.8315 11.96682652213155
GLOBALSTAR M046         
1 25651U 99012C   26094.94699197 -.00000048  00000+0  45265-3 0  9992
2 25651  52.0040 157.2408 0002225 118.3997  52.9313 12.09422575218964
GLOBALSTAR M037         
1 25652U 99012D   26094.92996808 -.00000066  00000+0  20957-3 0  9991
2 25652  52.0033  15.5719 0002452 102.1188 334.1522 12.62463911248129
